MALLIGYONG-1            
1 58400U 23179A   24236.52387648  .00009536  00000+0  41749-3 0  9999
2 58400  97.3925 122.2364 0001202  41.1682 318.9645 15.22241240 41960
